#dP2024  9  6 12  0  0.00000000      96 __u+U IGS20 EXT  IAC
## 2330 475200.00000000   900.00000000 60559 0.5000000000000
+   53   G02G03G04G05G06G07G08G09G10G11G12G13G14G15G16G17G18
+        G19G20G21G22G23G24G25G26G27G28G29G30G31G32R01R02R03
+        R04R05R07R08R09R11R12R14R15R16R17R18R19R20R21R22R24
+        R25R26  0  0  0  0  0  0  0  0  0  0  0  0  0  0  0
+          0  0  0  0  0  0  0  0  0  0  0  0  0  0  0  0  0
++         8  7  7  7  7  8  7  7  8  6  7  6  7  7  7  7  7
++         7  6  8  8  7  7  7  7  6  7  7  7  8  8  9  7  8
++         9  7  8  8  8  8  9  9  7  9  7  7 10  9  8  8  7
++         8  9  0  0  0  0  0  0  0  0  0  0  0  0  0  0  0
++         0  0  0  0  0  0  0  0  0  0  0  0  0  0  0  0  0
%c M  cc GPS ccc cccc cccc cccc cccc ccccc ccccc ccccc ccccc
%c cc cc ccc ccc cccc cccc cccc cccc ccccc ccccc ccccc ccccc
%f  0.0000000  0.000000000  0.00000000000  0.000000000000000
%f  0.0000000  0.000000000  0.00000000000  0.000000000000000
%i    0    0    0    0      0      0      0      0         0
%i    0    0    0    0      0      0      0      0         0
/* IAC                                ULTRA-RAPID PREDICTION
/* S/V CLOCKS ARE ALIGNED TO GNSS TIME                      
/* G:C1WC2W R:C1PC2P E:C1XC5X C:C2IC6I J:C1CC2S             
/* PCV:IGS20_2317 OL/AL:FES2004  NONE     YN ORB:CoN CLK:CoN
*  2024 09 07  7 30  0.00000000
PG02  15906.813879    257.836842  21784.885405   -363.198506
PG03  21697.667945 -10990.009950  10370.276058    528.914237
PG04  23694.419012   -898.601334 -12099.662578    439.015679
PG05 -16400.009310  -3375.718736 -20818.020245   -185.777385
PG06  -4806.117866 -26022.755371   1512.230099     47.590104
PG07   8247.918703 -17871.831731 -17086.439153    -40.944643
PG08  26059.107999   6204.180097    676.943099    343.891570
PG09  15746.948893  -9693.064323 -19178.624687    346.157454
PG10  -5406.701068  20139.795784  16458.196986   -117.421814
PG11 -12504.021093 -19938.208813 -12348.890590   -731.696214
PG12 -22142.111849   6862.410653  12642.377806   -536.218699
PG13 -21948.025422 -14223.231232  -5539.573318    675.144625
PG14   9125.055295 -21108.952143  13137.271651    490.007550
PG15 -26441.758553  -3216.875672    394.431795    201.436879
PG16  13469.979170   8577.682066 -21617.633650   -187.662305
PG17   -332.973632 -15972.205941  21615.762856    633.983886
PG18  -7939.489988  18409.873307 -17285.836899   -651.804779
PG19 -10035.414560 -17272.438843  17557.127983    534.846593
PG20  -9029.323263 -13087.573977 -21226.399489    370.888458
PG21  17063.171630   7270.324417  19786.044640    102.214820
PG22   2389.551558 -18894.635560  19046.409924    -59.371510
PG23 -15703.221663  20648.828815   5147.172586    314.681449
PG24 -16679.450570  -2656.432617  20143.042221   -486.802033
PG25 -20005.304745  16976.036853   2749.524250    499.574796
PG26   3728.994742  17675.438093 -19512.899040     84.338002
PG27  21432.094505  13097.028784  -9558.905798    -33.736605
PG28   4377.541923  25919.418854   3785.138541   -402.027137
PG29 -18842.004045   5936.285071 -17858.197090   -579.443538
PG30   1060.055922 -24672.307571  -9261.450646   -325.912165
PG31  11009.299206  22504.015689  -8443.290610   -225.000987
PG32   2946.733220  16141.380763  21139.167279   -599.448104
PR01  23373.252411   2224.954962   9953.828894     96.986893
PR02  24063.946706  -4896.806953  -6994.614384    -24.536523
PR03  11184.406170 -10454.325575 -20382.408476    107.090275
PR04  -7283.602146  -9851.268144 -22347.307785    253.539136
PR05 -21899.494118  -4279.039996 -12329.664384    137.302333
PR07 -10458.823879  10553.273114  20751.844808     90.400496
PR08   7684.254600   9871.690925  22289.527366     -6.377488
PR09 -14571.795762  13386.139021  16171.391264    207.778640
PR11  -2039.191247  20858.097415 -14541.740704     12.538838
PR12   9848.164511   4956.486450 -22973.416059     44.567412
PR14  10806.172958 -23089.971303   -386.603730     26.908497
PR15    952.761805 -19965.147858  15865.804779     76.129576
PR16  -9666.100541  -5033.664204  23076.231300     28.921974
PR17    -80.275523 -16217.226875  19717.619691    119.834848
PR18 -10918.466144 -22043.265755   6694.157352    160.852171
PR19 -15650.255557 -18404.629430  -8209.223348   -290.473114
PR20 -12060.130774   -478.346908 -22457.663247   -118.773870
PR21   -545.450831  15661.939896 -20111.511404   -132.386933
PR22  10999.717025  22369.086363  -5395.627635     52.702304
PR24  12198.467216   -866.133780  22399.479088    -71.004653
PR25   -534.956883  16530.231975 -19402.719040   -100.928000
PR26   6041.278364  10118.791135  22634.602761     19.555901
*  2024 09 07  7 45  0.00000000
PG02  16681.037679   2472.685991  21067.310319   -363.191433
PG03  20863.284369  -9913.259003  12843.825467    528.926656
PG04  24824.890649   -352.206809  -9621.830888    439.022158
PG05 -14850.906535  -5188.220260 -21594.134974   -185.778568
PG06  -4551.122743 -25746.427680   4405.144966     47.567057
PG07   9003.753075 -15840.948515 -18634.715859    -40.940207
PG08  25936.575807   6431.242223  -2133.131024    343.903614
PG09  17751.381679  -9087.557866 -17662.436247    346.171766
PG10  -6732.532046  21271.079487  14358.116532   -117.432606
PG11 -12587.505014 -21224.667092  -9885.613194   -731.700328
PG12 -21066.851005   5637.204427  14848.871880   -536.221263
PG13 -21176.516488 -14106.613103  -8259.143943    675.146423
PG14  10294.266175 -21875.403368  10782.021457    490.015298
PG15 -26351.643153  -3520.311096  -2398.972151    201.440779
PG16  11637.801800  10155.666482 -21961.185621   -187.653021
PG17   1969.636585 -15262.886143  22060.170648    633.974178
PG18  -8583.422157  16428.335852 -18916.277071   -651.806987
PG19  -8020.637014 -16634.811841  19089.395124    534.851093
PG20  -7621.284889 -15032.644936 -20493.137399    370.888115
PG21  17734.407543   9234.860360  18386.251057    102.214209
PG22   3995.537353 -20100.452797  17467.733970    -59.374960
PG23 -16147.856877  20813.560684   2281.289828    314.689087
PG24 -17416.044603  -4873.871118  19138.497591   -486.801959
PG25 -19871.466478  16390.801541   5544.460483    499.574885
PG26   2219.515709  19215.365344 -18199.822258     84.330600
PG27  20239.125249  12990.713536 -12021.527795    -33.736805
PG28   3967.198904  25425.471868   6561.185044   -402.039865
PG29 -20618.826734   5181.104549 -16044.152594   -579.441506
PG30   1682.979803 -23565.328560 -11714.477801   -325.905820
PG31  10929.352422  23342.529347  -5735.617844   -225.000556
PG32    604.655305  15598.878144  21723.099214   -599.444978
PR01  21967.074526   2294.562194  12747.573342     96.988103
PR02  24717.797500  -5134.729897  -3866.236918    -24.536674
PR03  13577.457490 -10810.102106 -18680.674083    107.090968
PR04  -4490.764769 -10099.648738 -22964.574838    253.540820
PR05 -20208.024339  -4300.000362 -14936.458972    137.302926
PR07 -12891.260603  10902.926286  19132.482470     90.401284
PR08   4919.247961  10140.834382  22939.199018     -6.377385
PR09 -13731.527867  11443.910477  18258.426049    207.780732
PR11  -2565.609802  22409.937209 -11916.859125     12.537971
PR12   8741.295584   7556.159311 -22711.233848     44.567925
PR14  10604.748248 -22907.223744  -3573.530690     26.908625
PR15   1574.211932 -21658.923371  13398.433786     76.129271
PR16  -8570.336082  -7639.752236  22788.558902     28.922335
PR17   1330.642173 -14121.579704  21223.795319    119.837839
PR18 -10487.977864 -21106.791869   9725.355216    160.853930
PR19 -16281.085561 -18973.339703  -5100.666379   -290.474268
PR20 -13613.535428  -2703.268477 -21384.759935   -118.774308
PR21  -1969.677770  13516.049860 -21531.955601   -132.389679
PR22  10637.713112  21577.682272  -8458.807145     52.694319
PR24  13825.506029   1288.640891  21409.117831    -71.005996
PR25  -1864.904619  14421.856686 -20942.883386   -100.927488
PR26   3240.234687  10423.426014  23068.270790     19.564702
EOF
